NORAD_CAT_ID,OBJECT_NAME,OBJECT_TYPE,EPOCH,MEAN_MOTION,ECCENTRICITY,INCLINATION,RA_OF_ASC_NODE,ARG_OF_PERICENTER,MEAN_ANOMALY,BSTAR,MEAN_MOTION_DOT,MEAN_MOTION_DDOT,TLE_LINE0,TLE_LINE1,TLE_LINE2,SEMIMAJOR_AXIS,PERIOD,APOGEE,PERIGEE,DECAYED
53023.0,STARLINK-4284,PAYLOAD,2023-08-07 16:19:13,15.08845012,0.0001018,53.2173,6.4238,106.2645,253.8459,0.0010856,0.00017034,0.0,0 STARLINK-4284,1 53023U 22076AP  23219.68001940  .00017034  00000-0  10856-2 0  9992,2 53023  53.2173   6.4238 0001018 106.2645 253.8459 15.08845012 60795,6917.865,95.437,540.434,539.026,0.0
53023.0,STARLINK-4284,PAYLOAD,2023-08-08 09:48:27,15.08860789,9.24e-05,53.2174,3.1538,100.383,259.7266,0.00089517,0.00013995,0.0,0 STARLINK-4284,1 53023U 22076AP  23220.40865464  .00013995  00000-0  89517-3 0  9996,2 53023  53.2174   3.1538 0000924 100.3830 259.7266 15.08860789 60901,6917.817,95.436,540.321,539.043,0.0
53023.0,STARLINK-4284,PAYLOAD,2023-08-09 09:39:13,15.08864905,0.0001261,53.2161,358.6942,83.3277,276.7858,0.00039865,6.067e-05,0.0,0 STARLINK-4284,1 53023U 22076AP  23221.40224126  .00006067  00000-0  39865-3 0  9994,2 53023  53.2161 358.6942 0001261  83.3277 276.7858 15.08864905 61051,6917.804,95.436,540.542,538.797,0.0
53023.0,STARLINK-4284,PAYLOAD,2023-08-10 09:30:00,15.0884594,8.31e-05,53.2169,354.233,92.9081,267.2007,0.00031656,4.755e-05,0.0,0 STARLINK-4284,1 53023U 22076AP  23222.39583858  .00004755  00000-0  31656-3 0  9995,2 53023  53.2169 354.2330 0000831  92.9081 267.2007 15.08845940 61209,6917.862,95.437,540.302,539.152,0.0
53023.0,STARLINK-4284,PAYLOAD,2023-08-10 15:51:33,15.08834192,8.87e-05,53.217,353.0436,93.6284,266.481,8.9088e-05,1.13e-05,0.0,0 STARLINK-4284,1 53023U 22076AP  23222.66080053  .00001130  00000-0  89088-4 0  9991,2 53023  53.2170 353.0436 0000887  93.6284 266.4810 15.08834192 61243,6917.898,95.438,540.377,539.15,0.0
53023.0,STARLINK-4284,PAYLOAD,2023-08-11 17:17:43,15.0884812,8.84e-05,53.2174,348.2861,92.9366,267.1727,0.00039602,6.022e-05,0.0,0 STARLINK-4284,1 53023U 22076AP  23223.72064194  .00006022  00000-0  39602-3 0  9998,2 53023  53.2174 348.2861 0000884  92.9366 267.1727 15.08848120 61404,6917.856,95.437,540.332,539.109,0.0
53023.0,STARLINK-4284,PAYLOAD,2023-08-12 01:14:39,15.08835357,0.0002015,53.217,346.7969,77.1744,282.9474,0.00046079,7.052e-05,0.0,0 STARLINK-4284,1 53023U 22076AP  23224.05185131  .00007052  00000-0  46079-3 0  9990,2 53023  53.2170 346.7969 0002015  77.1744 282.9474 15.08835357 61452,6917.895,95.438,541.154,538.366,0.0
53023.0,STARLINK-4284,PAYLOAD,2023-08-13 01:05:27,15.08836339,0.0001346,53.2171,342.3397,78.7752,281.3392,0.00018737,2.695e-05,0.0,0 STARLINK-4284,1 53023U 22076AP  23225.04545277  .00002695  00000-0  18737-3 0  9999,2 53023  53.2171 342.3397 0001346  78.7752 281.3392 15.08836339 61602,6917.892,95.438,540.688,538.825,0.0
53023.0,STARLINK-4284,PAYLOAD,2023-08-14 07:17:46,15.08848674,0.0001105,53.2171,336.6892,75.295,284.8164,0.00040967,6.24e-05,0.0,0 STARLINK-4284,1 53023U 22076AP  23226.30401156  .00006240  00000-0  40967-3 0  9996,2 53023  53.2171 336.6892 0001105  75.2950 284.8164 15.08848674 61793,6917.854,95.437,540.483,538.954,0.0
53023.0,STARLINK-4284,PAYLOAD,2023-08-15 10:19:19,15.08846756,0.0001048,53.2168,331.6366,67.5833,292.527,0.00016549,2.347e-05,0.0,0 STARLINK-4284,1 53023U 22076AP  23227.43008857  .00002347  00000-0  16549-3 0  9995,2 53023  53.2168 331.6366 0001048  67.5833 292.5270 15.08846756 61962,6917.86,95.437,540.45,539.0,0.0
53023.0,STARLINK-4284,PAYLOAD,2023-08-16 10:10:07,15.0883892,0.0001357,53.2168,327.1791,42.9741,317.1357,6.2427e-05,7.06e-06,0.0,0 STARLINK-4284,1 53023U 22076AP  23228.42369221  .00000706  00000-0  62427-4 0  9994,2 53023  53.2168 327.1791 0001357  42.9741 317.1357 15.08838920 62114,6917.884,95.438,540.687,538.81,0.0
53023.0,STARLINK-4284,PAYLOAD,2023-08-17 22:43:58,15.08844298,0.000114,53.2173,320.3341,93.9709,266.1413,6.5613e-05,7.57e-06,0.0,0 STARLINK-4284,1 53023U 22076AP  23229.94720993  .00000757  00000-0  65613-4 0  9995,2 53023  53.2173 320.3341 0001140  93.9709 266.1413 15.08844298 62342,6917.867,95.437,540.521,538.944,0.0
53023.0,STARLINK-4284,PAYLOAD,2023-08-18 09:51:41,15.08835924,0.0001104,53.217,318.2539,100.0837,260.0279,-1.8076e-05,-5.75e-06,0.0,0 STARLINK-4284,1 53023U 22076AP  23230.41089380 -.00000575  00000-0 -18076-4 0  9998,2 53023  53.2170 318.2539 0001104 100.0837 260.0279 15.08835924 62413,6917.893,95.438,540.522,538.994,0.0
53023.0,STARLINK-4284,PAYLOAD,2023-08-19 11:17:51,15.08842796,0.0001169,53.2164,313.4973,101.2847,258.8277,0.0001836,2.636e-05,0.0,0 STARLINK-4284,1 53023U 22076AP  23231.47073343  .00002636  00000-0  18360-3 0  9990,2 53023  53.2164 313.4973 0001169 101.2847 258.8277 15.08842796 62575,6917.872,95.437,540.546,538.928,0.0
53023.0,STARLINK-4284,PAYLOAD,2023-08-20 12:44:01,15.08839354,0.0001152,53.2165,308.7392,72.3595,287.7523,0.0001517,2.127e-05,0.0,0 STARLINK-4284,1 53023U 22076AP  23232.53057865  .00002127  00000-0  15170-3 0  9990,2 53023  53.2165 308.7392 0001152  72.3595 287.7523 15.08839354 62737,6917.882,95.438,540.544,538.95,0.0
53023.0,STARLINK-4284,PAYLOAD,2023-08-21 23:42:31,15.08840038,0.0001217,53.216,302.1969,76.7282,283.3846,0.00015667,2.206e-05,0.0,0 STARLINK-4284,1 53023U 22076AP  23233.98785993  .00002206  00000-0  15667-3 0  9999,2 53023  53.2160 302.1969 0001217  76.7282 283.3846 15.08840038 62958,6917.88,95.438,540.587,538.903,0.0
53023.0,STARLINK-4284,PAYLOAD,2023-08-23 10:40:59,15.08845645,0.0001224,53.2164,295.6536,111.1132,248.9992,0.00012161,1.648e-05,0.0,0 STARLINK-4284,1 53023U 22076AP  23235.44513864  .00001648  00000-0  12161-3 0  9993,2 53023  53.2164 295.6536 0001224 111.1132 248.9992 15.08845645 63177,6917.863,95.437,540.575,538.881,0.0
53023.0,STARLINK-4284,PAYLOAD,2023-08-24 10:31:47,15.08842939,0.0001393,53.216,291.1935,100.2709,259.8441,0.00019837,2.871e-05,0.0,0 STARLINK-4284,1 53023U 22076AP  23236.43874162  .00002871  00000-0  19837-3 0  9990,2 53023  53.2160 291.1935 0001393 100.2709 259.8441 15.08842939 62850,6917.871,95.437,540.7,538.773,0.0
53023.0,STARLINK-4284,PAYLOAD,2023-08-25 10:22:34,15.08840166,0.0001395,53.2165,286.7335,94.9273,265.1878,8.1412e-05,1.008e-05,0.0,0 STARLINK-4284,1 53023U 22076AP  23237.43234363  .00001008  00000-0  81412-4 0  9994,2 53023  53.2165 286.7335 0001395  94.9273 265.1878 15.08840166 63479,6917.88,95.438,540.71,538.78,0.0
53023.0,STARLINK-4284,PAYLOAD,2023-08-26 10:13:21,15.08840664,0.0001478,53.2166,282.2724,99.8306,260.2853,8.0379e-05,9.92e-06,0.0,0 STARLINK-4284,1 53023U 22076AP  23238.42594369  .00000992  00000-0  80379-4 0  9991,2 53023  53.2166 282.2724 0001478  99.8306 260.2853 15.08840664 63153,6917.878,95.438,540.766,538.721,0.0
53023.0,STARLINK-4284,PAYLOAD,2023-08-27 02:07:12,15.08839652,0.0001543,53.2169,279.2983,100.7445,259.3721,9.1886e-05,1.175e-05,0.0,0 STARLINK-4284,1 53023U 22076AP  23239.08834481  .00001175  00000-0  91886-4 0  9995,2 53023  53.2169 279.2983 0001543 100.7445 259.3721 15.08839652 63729,6917.881,95.438,540.814,538.679,0.0
53023.0,STARLINK-4284,PAYLOAD,2023-08-27 10:04:08,15.08841277,0.0001492,53.2167,277.8116,98.4331,261.683,9.883e-05,1.285e-05,0.0,0 STARLINK-4284,1 53023U 22076AP  23239.41954399  .00001285  00000-0  98830-4 0  9991,2 53023  53.2167 277.8116 0001492  98.4331 261.6830 15.08841277 63306,6917.876,95.437,540.774,538.709,0.0
53023.0,STARLINK-4284,PAYLOAD,2023-08-28 03:33:23,15.08839436,0.0001471,53.2167,274.5405,96.99,263.1259,5.188e-05,5.38e-06,0.0,0 STARLINK-4284,1 53023U 22076AP  23240.14818696  .00000538  00000-0  51880-4 0  9996,2 53023  53.2167 274.5405 0001471  96.9900 263.1259 15.08839436 63882,6917.882,95.438,540.765,538.729,0.0
53023.0,STARLINK-4284,PAYLOAD,2023-08-28 09:54:55,15.08841963,0.0001436,53.2165,273.3509,94.7171,265.3986,6.3238e-05,7.19e-06,0.0,0 STARLINK-4284,1 53023U 22076AP  23240.41314480  .00000719  00000-0  63238-4 0  9999,2 53023  53.2165 273.3509 0001436  94.7171 265.3986 15.08841963 63451,6917.874,95.437,540.733,538.746,0.0
53023.0,STARLINK-4284,PAYLOAD,2023-08-29 09:45:43,15.08839404,0.0001438,53.2164,268.8904,89.6971,270.4186,3.9077e-05,3.34e-06,0.0,0 STARLINK-4284,1 53023U 22076AP  23241.40674797  .00000334  00000-0  39077-4 0  9996,2 53023  53.2164 268.8904 0001438  89.6971 270.4186 15.08839404 64076,6917.882,95.438,540.742,538.752,0.0
53023.0,STARLINK-4284,PAYLOAD,2023-08-30 08:01:05,15.08855028,0.0001341,53.2168,264.7267,83.4675,276.6469,0.00014983,2.098e-05,0.0,0 STARLINK-4284,1 53023U 22076AP  23242.33409506  .00002098  00000-0  14983-3 0  9990,2 53023  53.2168 264.7267 0001341  83.4675 276.6469 15.08855028 64211,6917.834,95.437,540.627,538.772,0.0
53023.0,STARLINK-4284,PAYLOAD,2023-08-30 19:08:53,15.08762346,0.0001813,53.2165,262.6518,256.2134,103.8656,-0.00073074,-0.00011874,0.0,0 STARLINK-4284,1 53023U 22076AP  23242.79784028 -.00011874  00000-0 -73074-3 0  9995,2 53023  53.2165 262.6518 0001813 256.2134 103.8656 15.08762346 63812,6918.118,95.442,541.237,538.729,0.0
53023.0,STARLINK-4284,PAYLOAD,2023-08-31 01:30:21,15.08839827,0.0001411,53.2177,261.4572,92.7849,267.3305,8.7441e-05,1.104e-05,0.0,0 STARLINK-4284,1 53023U 22076AP  23243.06274614  .00001104  00000-0  87441-4 0  9998,2 53023  53.2177 261.4572 0001411  92.7849 267.3305 15.08839827 64325,6917.881,95.438,540.722,538.77,0.0
53023.0,STARLINK-4284,PAYLOAD,2023-09-01 07:42:41,15.08860635,0.0001333,53.2159,255.8088,93.6451,266.4694,-0.00023014,-3.951e-05,0.0,0 STARLINK-4284,1 53023U 22076AP  23244.32131437 -.00003951  00000-0 -23014-3 0  9992,2 53023  53.2159 255.8088 0001333  93.6451 266.4694 15.08860635 64519,6917.817,95.436,540.604,538.76,0.0
53023.0,STARLINK-4284,PAYLOAD,2023-09-01 17:14:59,15.08855392,0.0001248,53.2161,254.0215,99.204,260.9093,-0.00015389,-2.737e-05,0.0,0 STARLINK-4284,1 53023U 22076AP  23244.71874817 -.00002737  00000-0 -15389-3 0  9998,2 53023  53.2161 254.0215 0001248  99.2040 260.9093 15.08855392 64107,6917.833,95.437,540.562,538.835,0.0
